{"type": "FeatureCollection", "features": [ {"type": "Feature", "properties": {"norad_id": 37044, "name": "FENGYUN 1C DEB", "group": "fengyun-1c-debris", "lat": 59.56394122019023, "lon": 88.62439699367874, "alt_km": 836.953862407383, "timestamp": "2025-12-24T20:42:21.315650+00:00", "meta": {"OBJECT_NAME": "FENGYUN 1C DEB", "OBJECT_ID": "1999-025EEC", "EPOCH": "2025-12-23T02:22:09.343200", "MEAN_MOTION": 13.70971014, "ECCENTRICITY": 0.05075079, "INCLINATION": 98.9602, "RA_OF_ASC_NODE": 102.5473, "ARG_OF_PERICENTER": 134.0283, "MEAN_ANOMALY": 230.3862, "EPHEMERIS_TYPE": 0, "CLASSIFICATION_TYPE": "U", "NORAD_CAT_ID": 37044, "ELEMENT_SET_NO": 999, "REV_AT_EPOCH": 84000, "BSTAR": 0.0033543853, "MEAN_MOTION_DOT": 7.503e-05, "MEAN_MOTION_DDOT": 0}, "tle": {"line1": "1 37044U 99025EEC 25357.09871925  .00007503  00000+0  33544-2 0  9991", "line2": "2 37044  98.9602 102.5473 0507507 134.0283 230.3862 13.70971014840000"}}, "geometry": {"type": "Point", "coordinates": [88.62439699367874, 59.56394122019023]}}, {"type": "Feature", "properties": {"norad_id": 37046, "name": "FENGYUN 1C DEB", "group": "fengyun-1c-debris", "lat": -62.60886024536027, "lon": 29.658607024957643, "alt_km": 784.2155405779276, "timestamp": "2025-12-24T20:42:21.315660+00:00", "meta": {"OBJECT_NAME": "FENGYUN 1C DEB", "OBJECT_ID": "1999-025EEE", "EPOCH": "2025-12-23T19:43:26.478336", "MEAN_MOTION": 14.24875514, "ECCENTRICITY": 0.00488166, "INCLINATION": 98.5434, "RA_OF_ASC_NODE": 11.7811, "ARG_OF_PERICENTER": 274.2628, "MEAN_ANOMALY": 85.2974, "EPHEMERIS_TYPE": 0, "CLASSIFICATION_TYPE": "U", "NORAD_CAT_ID": 37046, "ELEMENT_SET_NO": 999, "REV_AT_EPOCH": 64339, "BSTAR": 0.00061363101, "MEAN_MOTION_DOT": 1.407e-05, "MEAN_MOTION_DDOT": 0}, "tle": {"line1": "1 37046U 99025EEE 25357.82183424  .00001407  00000+0  61363-3 0  9992", "line2": "2 37046  98.5434  11.7811 0048816 274.2628  85.2974 14.24875514643393"}}, "geometry": {"type": "Point", "coordinates": [29.658607024957643, -62.60886024536027]}}, {"type": "Feature", "properties": {"norad_id": 37048, "name": "FENGYUN 1C DEB", "group": "fengyun-1c-debris", "lat": 54.66202065698565, "lon": -153.57656339569652, "alt_km": 919.8207745024129, "timestamp": "2025-12-24T20:42:21.315670+00:00", "meta": {"OBJECT_NAME": "FENGYUN 1C DEB", "OBJECT_ID": "1999-025EEG", "EPOCH": "2025-12-20T11:28:01.182144", "MEAN_MOTION": 13.65138161, "ECCENTRICITY": 0.02535701, "INCLINATION": 98.8864, "RA_OF_ASC_NODE": 215.1499, "ARG_OF_PERICENTER": 129.0844, "MEAN_ANOMALY": 350.7839, "EPHEMERIS_TYPE": 0, "CLASSIFICATION_TYPE": "U", "NORAD_CAT_ID": 37048, "ELEMENT_SET_NO": 999, "REV_AT_EPOCH": 62275, "BSTAR": 0.00018884192, "MEAN_MOTION_DOT": 1.54e-06, "MEAN_MOTION_DDOT": 0}, "tle": {"line1": "1 37048U 99025EEG 25354.47779146  .00000154  00000+0  18884-3 0  9992", "line2": "2 37048  98.8864 215.1499 0253570 129.0844 350.7839 13.65138161622750"}}, "geometry": {"type": "Point", "coordinates": [-153.57656339569652, 54.66202065698565]}}, {"type": "Feature", "properties": {"norad_id": 37054, "name": "FENGYUN 1C DEB", "group": "fengyun-1c-debris", "lat": -78.39036378399634, "lon": 27.985276477720824, "alt_km": 899.0353836726017, "timestamp": "2025-12-24T20:42:21.315680+00:00", "meta": {"OBJECT_NAME": "FENGYUN 1C DEB", "OBJECT_ID": "1999-025EEN", "EPOCH": "2025-12-18T04:22:47.839296", "MEAN_MOTION": 14.19457855, "ECCENTRICITY": 0.01012295, "INCLINATION": 98.5505, "RA_OF_ASC_NODE": 334.4558, "ARG_OF_PERICENTER": 89.7023, "MEAN_ANOMALY": 271.5753, "EPHEMERIS_TYPE": 0, "CLASSIFICATION_TYPE": "U", "NORAD_CAT_ID": 37054, "ELEMENT_SET_NO": 999, "REV_AT_EPOCH": 64506, "BSTAR": 0.00022919283, "MEAN_MOTION_DOT": 4.67e-06, "MEAN_MOTION_DDOT": 0}, "tle": {"line1": "1 37054U 99025EEN 25352.18249814  .00000467  00000+0  22919-3 0  9990", "line2": "2 37054  98.5505 334.4558 0101229  89.7023 271.5753 14.19457855645069"}}, "geometry": {"type": "Point", "coordinates": [27.985276477720824, -78.39036378399634]}}, {"type": "Feature", "properties": {"norad_id": 37056, "name": "FENGYUN 1C DEB", "group": "fengyun-1c-debris", "lat": 15.120532782210516, "lon": 19.51685587072722, "alt_km": 733.2630437929674, "timestamp": "2025-12-24T20:42:21.315690+00:00", "meta": {"OBJECT_NAME": "FENGYUN 1C DEB", "OBJECT_ID": "1999-025EEQ", "EPOCH": "2025-12-23T06:33:22.463424", "MEAN_MOTION": 14.50481946, "ECCENTRICITY": 0.02688777, "INCLINATION": 98.9804, "RA_OF_ASC_NODE": 20.2691, "ARG_OF_PERICENTER": 114.2653, "MEAN_ANOMALY": 248.6879, "EPHEMERIS_TYPE": 0, "CLASSIFICATION_TYPE": "U", "NORAD_CAT_ID": 37056, "ELEMENT_SET_NO": 999, "REV_AT_EPOCH": 65564, "BSTAR": 0.00025624445, "MEAN_MOTION_DOT": 1.536e-05, "MEAN_MOTION_DDOT": 0}, "tle": {"line1": "1 37056U 99025EEQ 25357.27317666  .00001536  00000+0  25624-3 0  9992", "line2": "2 37056  98.9804  20.2691 0268877 114.2653 248.6879 14.50481946655643"}}, "geometry": {"type": "Point", "coordinates": [19.51685587072722, 15.120532782210516]}}, {"type": "Feature", "properties": {"norad_id": 37057, "name": "FENGYUN 1C DEB", "group": "fengyun-1c-debris", "lat": -72.66020422803003, "lon": 43.510553744112556, "alt_km": 1122.405972755837, "timestamp": "2025-12-24T20:42:21.315700+00:00", "meta": {"OBJECT_NAME": "FENGYUN 1C DEB", "OBJECT_ID": "1999-025EER", "EPOCH": "2025-12-19T18:57:33.353568", "MEAN_MOTION": 13.96116671, "ECCENTRICITY": 0.02853199, "INCLINATION": 98.9208, "RA_OF_ASC_NODE": 8.387, "ARG_OF_PERICENTER": 120.0686, "MEAN_ANOMALY": 242.91, "EPHEMERIS_TYPE": 0, "CLASSIFICATION_TYPE": "U", "NORAD_CAT_ID": 37057, "ELEMENT_SET_NO": 999, "REV_AT_EPOCH": 63696, "BSTAR": 7.2468399e-05, "MEAN_MOTION_DOT": 9.9e-07, "MEAN_MOTION_DDOT": 0}, "tle": {"line1": "1 37057U 99025EER 25353.78996937  .00000099  00000+0  72468-4 0  9991", "line2": "2 37057  98.9208   8.3870 0285319 120.0686 242.9100 13.96116671636966"}}, "geometry": {"type": "Point", "coordinates": [43.510553744112556, -72.66020422803003]}}, {"type": "Feature", "properties": {"norad_id": 37061, "name": "FENGYUN 1C DEB", "group": "fengyun-1c-debris", "lat": -68.2515383672643, "lon": -140.39755666958578, "alt_km": 1124.2687001135664, "timestamp": "2025-12-24T20:42:21.315710+00:00", "meta": {"OBJECT_NAME": "FENGYUN 1C DEB", "OBJECT_ID": "1999-025EEV", "EPOCH": "2025-12-22T10:42:39.888864", "MEAN_MOTION": 13.13604705, "ECCENTRICITY": 0.08010232, "INCLINATION": 98.0832, "RA_OF_ASC_NODE": 58.6052, "ARG_OF_PERICENTER": 341.5304, "MEAN_ANOMALY": 15.8205, "EPHEMERIS_TYPE": 0, "CLASSIFICATION_TYPE": "U", "NORAD_CAT_ID": 37061, "ELEMENT_SET_NO": 999, "REV_AT_EPOCH": 8283, "BSTAR": 0.002300659, "MEAN_MOTION_DOT": 4.442e-05, "MEAN_MOTION_DDOT": 0}, "tle": {"line1": "1 37061U 99025EEV 25356.44629501  .00004442  00000+0  23007-2 0  9991", "line2": "2 37061  98.0832  58.6052 0801023 341.5304  15.8205 13.13604705 82831"}}, "geometry": {"type": "Point", "coordinates": [-140.39755666958578, -68.2515383672643]}}, {"type": "Feature", "properties": {"norad_id": 37064, "name": "FENGYUN 1C DEB", "group": "fengyun-1c-debris", "lat": -45.279571790972696, "lon": 160.1176686929763, "alt_km": 875.1757872234703, "timestamp": "2025-12-24T20:42:21.315720+00:00", "meta": {"OBJECT_NAME": "FENGYUN 1C DEB", "OBJECT_ID": "1999-025EEY", "EPOCH": "2025-11-25T16:29:09.460320", "MEAN_MOTION": 14.15612933, "ECCENTRICITY": 0.01070067, "INCLINATION": 98.9095, "RA_OF_ASC_NODE": 121.83, "ARG_OF_PERICENTER": 150.7609, "MEAN_ANOMALY": 209.9612, "EPHEMERIS_TYPE": 0, "CLASSIFICATION_TYPE": "U", "NORAD_CAT_ID": 37064, "ELEMENT_SET_NO": 999, "REV_AT_EPOCH": 81294, "BSTAR": 0.0049331234, "MEAN_MOTION_DOT": 0.00010179, "MEAN_MOTION_DDOT": 0}, "tle": {"line1": "1 37064U 99025EEY 25329.68691505  .00010179  00000+0  49331-2 0  9995", "line2": "2 37064  98.9095 121.8300 0107006 150.7609 209.9612 14.15612933812947"}}, "geometry": {"type": "Point", "coordinates": [160.1176686929763, -45.279571790972696]}}, {"type": "Feature", "properties": {"norad_id": 37065, "name": "FENGYUN 1C DEB", "group": "fengyun-1c-debris", "lat": -62.78344790727688, "lon": -29.436620523670392, "alt_km": 851.4325220045184, "timestamp": "2025-12-24T20:42:21.315730+00:00", "meta": {"OBJECT_NAME": "FENGYUN 1C DEB", "OBJECT_ID": "1999-025EEZ", "EPOCH": "2025-12-13T18:30:23.335488", "MEAN_MOTION": 13.59126537, "ECCENTRICITY": 0.02987556, "INCLINATION": 103.2861, "RA_OF_ASC_NODE": 162.9273, "ARG_OF_PERICENTER": 240.3853, "MEAN_ANOMALY": 116.7203, "EPHEMERIS_TYPE": 0, "CLASSIFICATION_TYPE": "U", "NORAD_CAT_ID": 37065, "ELEMENT_SET_NO": 999, "REV_AT_EPOCH": 22216, "BSTAR": 0.0032978969, "MEAN_MOTION_DOT": 3.181e-05, "MEAN_MOTION_DDOT": 0}, "tle": {"line1": "1 37065U 99025EEZ 25347.77110342  .00003181  00000+0  32979-2 0  9996", "line2": "2 37065 103.2861 162.9273 0298755 240.3853 116.7203 13.59126537222160"}}, "geometry": {"type": "Point", "coordinates": [-29.436620523670392, -62.78344790727688]}}, {"type": "Feature", "properties": {"norad_id": 37067, "name": "FENGYUN 1C DEB", "group": "fengyun-1c-debris", "lat": 37.31565480557884, "lon": -66.42184218123099, "alt_km": 802.2903512415423, "timestamp": "2025-12-24T20:42:21.315740+00:00", "meta": {"OBJECT_NAME": "FENGYUN 1C DEB", "OBJECT_ID": "1999-025EFB", "EPOCH": "2025-12-22T18:48:08.678592", "MEAN_MOTION": 14.00413613, "ECCENTRICITY": 0.01569364, "INCLINATION": 99.539, "RA_OF_ASC_NODE": 298.7728, "ARG_OF_PERICENTER": 84.4124, "MEAN_ANOMALY": 277.4913, "EPHEMERIS_TYPE": 0, "CLASSIFICATION_TYPE": "U", "NORAD_CAT_ID": 37067, "ELEMENT_SET_NO": 999, "REV_AT_EPOCH": 57549, "BSTAR": 0.0037911676, "MEAN_MOTION_DOT": 6.209e-05, "MEAN_MOTION_DDOT": 0}, "tle": {"line1": "1 37067U 99025EFB 25356.78343378  .00006209  00000+0  37912-2 0  9992", "line2": "2 37067  99.5390 298.7728 0156936  84.4124 277.4913 14.00413613575492"}}, "geometry": {"type": "Point", "coordinates": [-66.42184218123099, 37.31565480557884]}}]}